OBJECT_NAME,OBJECT_ID,EPOCH,MEAN_MOTION,ECCENTRICITY,INCLINATION,RA_OF_ASC_NODE,ARG_OF_PERICENTER,MEAN_ANOMALY,EPHEMERIS_TYPE,CLASSIFICATION_TYPE,NORAD_CAT_ID,ELEMENT_SET_NO,REV_AT_EPOCH,BSTAR,MEAN_MOTION_DOT,MEAN_MOTION_DDOT
POLYITAN-1,2014-033AJ,2026-07-12T00:58:18.380064,15.34143583,.00081619,98.0942,221.6677,73.0393,287.1741,0,U,40042,999,65740,.36063022E-3,.11843E-3,0
TIGRISAT,2014-033AK,2026-07-11T08:52:24.274560,14.85242878,.00489566,97.7858,341.8319,356.9649,3.1262,0,U,40043,999,64921,.10764196E-3,.887E-5,0
AEROCUBE 6A,2014-033AM,2026-07-12T01:39:06.568128,14.98323759,.00366184,97.7234,359.7579,291.7441,67.9886,0,U,40045,999,65034,.26138002E-3,.3093E-4,0
AEROCUBE 6B,2014-033AN,2026-07-10T05:53:35.084544,14.99771692,.00379448,97.7203,357.7928,287.6201,72.0880,0,U,40046,999,65021,.25889665E-3,.3186E-4,0
CANX-4,2014-034C,2026-07-12T03:29:06.815328,14.81308004,.00114955,98.3089,69.3710,293.7859,66.2147,0,U,40055,999,64822,.65105331E-4,.451E-5,0
CANX-5,2014-034D,2026-07-12T03:26:26.256480,14.81325415,.00114935,98.3091,69.4141,293.9901,66.0106,0,U,40056,999,63903,.66165812E-4,.459E-5,0
UKUBE-1,2014-037F,2026-07-11T22:57:36.360576,15.13920284,.000328,98.4242,198.8382,93.2420,266.9184,0,U,40074,999,65230,.28459E-3,.5077E-4,0
BRITE-PL2 (HEWELIUSZ),2014-049B,2026-07-11T21:01:11.261856,14.94681645,.0014633,97.9118,305.0696,33.0365,327.1766,0,U,40119,999,64513,.9874E-4,.1013E-4,0
AEROCUBE 5C,2015-058B,2026-07-11T23:30:30.300768,14.91564017,.01321165,64.7651,185.4549,53.6557,307.6664,0,U,40965,999,36935,.17688434E-3,.1921E-4,0
AEROCUBE 7,2015-058C,2026-07-11T08:52:31.063008,14.95890731,.01217529,64.7604,169.0605,52.2144,308.9921,0,U,40966,999,36957,.25063791E-3,.3081E-4,0
FOX-1A (AO-85),2015-058D,2026-07-12T00:50:37.737600,14.91076787,.0132122,64.7730,201.7566,46.9965,314.2129,0,U,40967,999,11727,.16263578E-3,.1727E-4,0
SINOD-D 1,2015-058E,2026-07-12T06:44:14.867232,14.96070677,.01208005,64.7730,180.3188,43.2700,317.7825,0,U,40968,999,12041,.23589554E-3,.2896E-4,0
SNAP-3 ALICE,2015-058G,2026-07-11T22:20:35.674944,15.66570748,.0024101,64.7491,17.9897,350.3600,9.7083,0,U,40970,999,12075,.8458E-3,.91094E-3,0
LMRST-SAT,2015-058H,2026-07-11T23:55:27.413184,14.90692172,.01336783,64.7737,198.2611,49.0142,312.2442,0,U,40971,999,11725,.15846989E-3,.1667E-4,0
SNAP-3 EDDIE,2015-058J,2026-07-11T20:06:06.891264,15.67881370,.00251651,64.7396,8.8536,353.3710,6.7103,0,U,40972,999,12288,.89572349E-3,.102073E-2,0
PROPCUBE 3,2015-058K,2026-07-11T23:18:37.054944,14.94400058,.0125512,64.7665,175.0918,50.2324,310.9764,0,U,40973,999,11850,.21526E-3,.2534E-4,0
BISONSAT,2015-058L,2026-07-12T03:47:32.340480,15.16878421,.00818451,64.7589,92.8676,37.1114,323.5630,0,U,40974,999,11940,.4146844E-3,.8738E-4,0
SNAP-3 JIMI,2015-058M,2026-07-11T06:50:34.465632,15.02574155,.01075457,64.7632,143.5121,45.8501,315.1396,0,U,40975,999,11784,.31539616E-3,.4584E-4,0
PROPCUBE 1 (FLORA),2015-058N,2026-07-12T01:00:03.837312,14.89318553,.0132235,64.7718,218.1988,51.3038,309.9812,0,U,40976,999,11996,.1269693E-3,.1243E-4,0
SINOD-D 3,2015-058P,2026-07-12T00:09:56.475360,14.94158131,.01208038,64.7701,198.3054,48.3811,312.7574,0,U,40977,999,11846,.20403689E-3,.2347E-4,0
RAVAN,2016-067B,2026-07-11T23:55:25.165920,15.57218470,.00018526,97.9848,85.4791,239.2173,120.8898,0,U,41849,999,53155,.51238912E-3,.37282E-3,0
CELTEE 1,2016-067C,2026-07-12T02:15:54.968544,15.19922499,.00022149,98.0645,61.3605,114.2787,245.8678,0,U,41850,999,52966,.14525244E-3,.3043E-4,0
OPTICUBE 04,2016-067D,2026-07-12T03:11:01.169952,15.09764515,.00163942,98.0677,46.7164,37.8029,322.4347,0,U,41851,999,52893,.93482998E-4,.1441E-4,0
AEROCUBE 8D,2016-067E,2026-07-11T15:17:15.226656,15.24738190,.00047516,98.0654,64.6700,65.5953,294.5778,0,U,41852,999,52979,.1766625E-3,.4292E-4,0
AEROCUBE 8C,2016-067F,2026-07-11T14:12:55.612512,15.24991832,.0004641,98.0530,61.8186,355.5384,4.5809,0,U,41853,999,52978,.18667821E-3,.4575E-4,0
CORVUS BC2,2017-042X,2026-07-10T07:28:21.992160,15.06442373,.00138712,97.4090,351.7667,39.1681,321.0548,0,U,42846,999,49054,.14632989E-3,.2103E-4,0
CORVUS BC1,2017-042Y,2026-07-11T21:32:15.786816,15.06611168,.0011945,97.4117,354.1218,12.2872,347.8644,0,U,42847,999,49081,.94397E-4,.1341E-4,0
MAKERSAT 0,2017-073D,2026-07-12T02:56:40.332192,15.32930037,.01052889,97.4594,75.8460,183.1958,176.8625,0,U,43016,999,47028,.3144352E-3,.11859E-3,0
SIRION PATHFINDER-2,2018-099B,2026-07-11T16:35:34.223712,15.14760800,.00081287,97.4245,241.1675,204.5244,155.5602,0,U,43759,999,41633,.16707902E-3,.3035E-4,0
CORVUS BC4,2018-099K,2026-07-11T15:57:51.588288,15.12684923,.00064882,97.4058,234.9296,276.4412,83.6081,0,U,43767,999,41610,.1639445E-3,.2806E-4,0
